STARLINK-37081          
1 68229U 26053Y   26095.26222933  .00165457  00000+0  10872-2 0  9991
2 68229  97.2849 330.8622 0001658  77.0816 283.0634 15.75225045  4254
STARLINK-37100          
1 68230U 26053Z   26095.24025239  .00071930  00000+0  37296-3 0  9993
2 68230  97.2839 330.8920 0001571 122.9513 237.1907 15.80828455  4257
STARLINK-37104          
1 68231U 26053AA  26095.23950093  .00186119  00000+0  94992-3 0  9990
2 68231  97.2835 330.8922 0000978  37.3237 322.8100 15.80860032  4252
STARLINK-37027          
1 68232U 26054A   26095.20521137  .00228716  00000+0  14529-2 0  9999
2 68232  53.1595 180.0722 0001315 104.1895 255.9271 15.75291607  2960
STARLINK-37132          
1 68233U 26054B   26095.24359175  .00314868  00000+0  15343-2 0  9994
2 68233  53.1579 179.5896 0001389  53.0568 307.0582 15.80973366  2978
STARLINK-37101          
1 68234U 26054C   26095.25990674  .00303452  00000+0  19046-2 0  9992
2 68234  53.1582 179.6979 0001395  76.4919 283.6257 15.75346456  2978
STARLINK-36963          
1 68235U 26054D   26095.20100531  .00310325  00000+0  19492-2 0  9995
2 68235  53.1592 180.0437 0002127  46.7370 313.3828 15.75309554  2962
STARLINK-37127          
1 68236U 26054E   26095.21007902  .00175339  00000+0  11229-2 0  9999
2 68236  53.1592 180.1042 0001585  82.1450 277.9750 15.75269075  2968
STARLINK-37095          
1 68237U 26054F   26095.20554266  .00168760  00000+0  10822-2 0  9997
2 68237  53.1596 180.0739 0001102  90.7980 269.3167 15.75260076  2962
STARLINK-37097          
1 68238U 26054G   26095.23983749  .00249991  00000+0  12295-2 0  9995
2 68238  53.1580 179.5644 0001404  49.9010 310.2135 15.80948721  2977
STARLINK-37096          
1 68239U 26054H   26093.72106427  .00311187  00000+0  15205-2 0  9999
2 68239  53.1586 187.1577 0001026 117.1065 243.0063 15.80922737  2738
STARLINK-37092          
1 68240U 26054J   26095.25002315  .00017783  00000+0  11975-3 0  9998
2 68240  53.1579 179.6369 0001212 114.8531 242.5543 15.75274535  4184
STARLINK-37094          
1 68241U 26054K   26095.23759013  .00197288  00000+0  97777-3 0  9994
2 68241  53.1580 179.5489 0001037  44.4446 315.6660 15.80931797  2970
STARLINK-36356          
1 68242U 26054L   26095.25002315 -.00022016  00000+0 -13941-3 0  9992
2 68242  53.1581 179.6892 0001179 111.1950 220.4410 15.75305101  4224
STARLINK-36345          
1 68243U 26054M   26095.20067355  .00290517  00000+0  18311-2 0  9999
2 68243  53.1594 180.0412 0001294 134.0472 226.0655 15.75287916  2969
STARLINK-36310          
1 68244U 26054N   26095.23458496  .00243399  00000+0  11983-2 0  9997
2 68244  53.1588 179.5291 0001290  72.7466 287.3698 15.80945214  2974
