[{"OBJECT_NAME":"STARLINK-37081","OBJECT_ID":"2026-053Y","EPOCH":"2026-04-05T06:17:36.614112","MEAN_MOTION":15.75225045,"ECCENTRICITY":0.00016586,"INCLINATION":97.2849,"RA_OF_ASC_NODE":330.8622,"ARG_OF_PERICENTER":77.0816,"MEAN_ANOMALY":283.0634,"EPHEMERIS_TYPE":0,"CLASSIFICATION_TYPE":"U","NORAD_CAT_ID":68229,"ELEMENT_SET_NO":999,"REV_AT_EPOCH":425,"BSTAR":0.0010871505,"MEAN_MOTION_DOT":0.00165457,"MEAN_MOTION_DDOT":0},{"OBJECT_NAME":"STARLINK-37100","OBJECT_ID":"2026-053Z","EPOCH":"2026-04-05T05:45:57.806496","MEAN_MOTION":15.80828455,"ECCENTRICITY":0.00015717,"INCLINATION":97.2839,"RA_OF_ASC_NODE":330.892,"ARG_OF_PERICENTER":122.9513,"MEAN_ANOMALY":237.1907,"EPHEMERIS_TYPE":0,"CLASSIFICATION_TYPE":"U","NORAD_CAT_ID":68230,"ELEMENT_SET_NO":999,"REV_AT_EPOCH":425,"BSTAR":0.00037295635,"MEAN_MOTION_DOT":0.0007193,"MEAN_MOTION_DDOT":0},{"OBJECT_NAME":"STARLINK-37104","OBJECT_ID":"2026-053AA","EPOCH":"2026-04-05T05:44:52.880352","MEAN_MOTION":15.80860032,"ECCENTRICITY":9.785e-5,"INCLINATION":97.2835,"RA_OF_ASC_NODE":330.8922,"ARG_OF_PERICENTER":37.3237,"MEAN_ANOMALY":322.81,"EPHEMERIS_TYPE":0,"CLASSIFICATION_TYPE":"U","NORAD_CAT_ID":68231,"ELEMENT_SET_NO":999,"REV_AT_EPOCH":425,"BSTAR":0.0009499209,"MEAN_MOTION_DOT":0.00186119,"MEAN_MOTION_DDOT":0},{"OBJECT_NAME":"STARLINK-37027","OBJECT_ID":"2026-054A","EPOCH":"2026-04-05T04:55:30.262368","MEAN_MOTION":15.75291607,"ECCENTRICITY":0.00013159,"INCLINATION":53.1595,"RA_OF_ASC_NODE":180.0722,"ARG_OF_PERICENTER":104.1895,"MEAN_ANOMALY":255.9271,"EPHEMERIS_TYPE":0,"CLASSIFICATION_TYPE":"U","NORAD_CAT_ID":68232,"ELEMENT_SET_NO":999,"REV_AT_EPOCH":296,"BSTAR":0.0014528642,"MEAN_MOTION_DOT":0.00228716,"MEAN_MOTION_DDOT":0},{"OBJECT_NAME":"STARLINK-37132","OBJECT_ID":"2026-054B","EPOCH":"2026-04-05T05:50:46.327200","MEAN_MOTION":15.80973366,"ECCENTRICITY":0.0001389,"INCLINATION":53.1579,"RA_OF_ASC_NODE":179.5896,"ARG_OF_PERICENTER":53.0568,"MEAN_ANOMALY":307.0582,"EPHEMERIS_TYPE":0,"CLASSIFICATION_TYPE":"U","NORAD_CAT_ID":68233,"ELEMENT_SET_NO":999,"REV_AT_EPOCH":297,"BSTAR":0.0015342529,"MEAN_MOTION_DOT":0.00314868,"MEAN_MOTION_DDOT":0},{"OBJECT_NAME":"STARLINK-37101","OBJECT_ID":"2026-054C","EPOCH":"2026-04-05T06:14:15.942336","MEAN_MOTION":15.75346456,"ECCENTRICITY":0.00013954,"INCLINATION":53.1582,"RA_OF_ASC_NODE":179.6979,"ARG_OF_PERICENTER":76.4919,"MEAN_ANOMALY":283.6257,"EPHEMERIS_TYPE":0,"CLASSIFICATION_TYPE":"U","NORAD_CAT_ID":68234,"ELEMENT_SET_NO":999,"REV_AT_EPOCH":297,"BSTAR":0.001904613,"MEAN_MOTION_DOT":0.00303452,"MEAN_MOTION_DDOT":0},{"OBJECT_NAME":"STARLINK-36963","OBJECT_ID":"2026-054D","EPOCH":"2026-04-05T04:49:26.858784","MEAN_MOTION":15.75309554,"ECCENTRICITY":0.0002127,"INCLINATION":53.1592,"RA_OF_ASC_NODE":180.0437,"ARG_OF_PERICENTER":46.737,"MEAN_ANOMALY":313.3828,"EPHEMERIS_TYPE":0,"CLASSIFICATION_TYPE":"U","NORAD_CAT_ID":68235,"ELEMENT_SET_NO":999,"REV_AT_EPOCH":296,"BSTAR":0.0019491928,"MEAN_MOTION_DOT":0.00310325,"MEAN_MOTION_DDOT":0},{"OBJECT_NAME":"STARLINK-37127","OBJECT_ID":"2026-054E","EPOCH":"2026-04-05T05:02:30.827328","MEAN_MOTION":15.75269075,"ECCENTRICITY":0.00015853,"INCLINATION":53.1592,"RA_OF_ASC_NODE":180.1042,"ARG_OF_PERICENTER":82.145,"MEAN_ANOMALY":277.975,"EPHEMERIS_TYPE":0,"CLASSIFICATION_TYPE":"U","NORAD_CAT_ID":68236,"ELEMENT_SET_NO":999,"REV_AT_EPOCH":296,"BSTAR":0.001122946,"MEAN_MOTION_DOT":0.00175339,"MEAN_MOTION_DDOT":0},{"OBJECT_NAME":"STARLINK-37095","OBJECT_ID":"2026-054F","EPOCH":"2026-04-05T04:55:58.885824","MEAN_MOTION":15.75260076,"ECCENTRICITY":0.00011028,"INCLINATION":53.1596,"RA_OF_ASC_NODE":180.0739,"ARG_OF_PERICENTER":90.798,"MEAN_ANOMALY":269.3167,"EPHEMERIS_TYPE":0,"CLASSIFICATION_TYPE":"U","NORAD_CAT_ID":68237,"ELEMENT_SET_NO":999,"REV_AT_EPOCH":296,"BSTAR":0.0010822482,"MEAN_MOTION_DOT":0.0016876,"MEAN_MOTION_DDOT":0},{"OBJECT_NAME":"STARLINK-37097","OBJECT_ID":"2026-054G","EPOCH":"2026-04-05T05:45:21.959136","MEAN_MOTION":15.80948721,"ECCENTRICITY":0.00014047,"INCLINATION":53.158,"RA_OF_ASC_NODE":179.5644,"ARG_OF_PERICENTER":49.901,"MEAN_ANOMALY":310.2135,"EPHEMERIS_TYPE":0,"CLASSIFICATION_TYPE":"U","NORAD_CAT_ID":68238,"ELEMENT_SET_NO":999,"REV_AT_EPOCH":297,"BSTAR":0.0012295039,"MEAN_MOTION_DOT":0.00249991,"MEAN_MOTION_DDOT":0},{"OBJECT_NAME":"STARLINK-37096","OBJECT_ID":"2026-054H","EPOCH":"2026-04-03T17:18:19.952928","MEAN_MOTION":15.80922737,"ECCENTRICITY":0.00010266,"INCLINATION":53.1586,"RA_OF_ASC_NODE":187.1577,"ARG_OF_PERICENTER":117.1065,"MEAN_ANOMALY":243.0063,"EPHEMERIS_TYPE":0,"CLASSIFICATION_TYPE":"U","NORAD_CAT_ID":68239,"ELEMENT_SET_NO":999,"REV_AT_EPOCH":273,"BSTAR":0.0015205244,"MEAN_MOTION_DOT":0.00311187,"MEAN_MOTION_DDOT":0},{"OBJECT_NAME":"STARLINK-37092","OBJECT_ID":"2026-054J","EPOCH":"2026-04-05T06:00:02.000160","MEAN_MOTION":15.75274535,"ECCENTRICITY":0.00012121,"INCLINATION":53.1579,"RA_OF_ASC_NODE":179.6369,"ARG_OF_PERICENTER":114.8531,"MEAN_ANOMALY":242.5543,"EPHEMERIS_TYPE":0,"CLASSIFICATION_TYPE":"U","NORAD_CAT_ID":68240,"ELEMENT_SET_NO":999,"REV_AT_EPOCH":418,"BSTAR":0.00011974587,"MEAN_MOTION_DOT":0.00017783,"MEAN_MOTION_DDOT":0},{"OBJECT_NAME":"STARLINK-37094","OBJECT_ID":"2026-054K","EPOCH":"2026-04-05T05:42:07.787232","MEAN_MOTION":15.80931797,"ECCENTRICITY":0.00010379,"INCLINATION":53.158,"RA_OF_ASC_NODE":179.5489,"ARG_OF_PERICENTER":44.4446,"MEAN_ANOMALY":315.666,"EPHEMERIS_TYPE":0,"CLASSIFICATION_TYPE":"U","NORAD_CAT_ID":68241,"ELEMENT_SET_NO":999,"REV_AT_EPOCH":297,"BSTAR":0.00097777373,"MEAN_MOTION_DOT":0.00197288,"MEAN_MOTION_DDOT":0},{"OBJECT_NAME":"STARLINK-36356","OBJECT_ID":"2026-054L","EPOCH":"2026-04-05T06:00:02.000160","MEAN_MOTION":15.75305101,"ECCENTRICITY":0.00011794,"INCLINATION":53.1581,"RA_OF_ASC_NODE":179.6892,"ARG_OF_PERICENTER":111.195,"MEAN_ANOMALY":220.441,"EPHEMERIS_TYPE":0,"CLASSIFICATION_TYPE":"U","NORAD_CAT_ID":68242,"ELEMENT_SET_NO":999,"REV_AT_EPOCH":422,"BSTAR":-0.00013941097,"MEAN_MOTION_DOT":-0.00022016,"MEAN_MOTION_DDOT":0},{"OBJECT_NAME":"STARLINK-36345","OBJECT_ID":"2026-054M","EPOCH":"2026-04-05T04:48:58.194720","MEAN_MOTION":15.75287916,"ECCENTRICITY":0.00012941,"INCLINATION":53.1594,"RA_OF_ASC_NODE":180.0412,"ARG_OF_PERICENTER":134.0472,"MEAN_ANOMALY":226.0655,"EPHEMERIS_TYPE":0,"CLASSIFICATION_TYPE":"U","NORAD_CAT_ID":68243,"ELEMENT_SET_NO":999,"REV_AT_EPOCH":296,"BSTAR":0.0018310784,"MEAN_MOTION_DOT":0.00290517,"MEAN_MOTION_DDOT":0},{"OBJECT_NAME":"STARLINK-36310","OBJECT_ID":"2026-054N","EPOCH":"2026-04-05T05:37:48.140544","MEAN_MOTION":15.80945214,"ECCENTRICITY":0.00012906,"INCLINATION":53.1588,"RA_OF_ASC_NODE":179.5291,"ARG_OF_PERICENTER":72.7466,"MEAN_ANOMALY":287.3698,"EPHEMERIS_TYPE":0,"CLASSIFICATION_TYPE":"U","NORAD_CAT_ID":68244,"ELEMENT_SET_NO":999,"REV_AT_EPOCH":297,"BSTAR":0.0011982903,"MEAN_MOTION_DOT":0.00243399,"MEAN_MOTION_DDOT":0}]
